OBJECT_NAME,OBJECT_ID,EPOCH,MEAN_MOTION,ECCENTRICITY,INCLINATION,RA_OF_ASC_NODE,ARG_OF_PERICENTER,MEAN_ANOMALY,EPHEMERIS_TYPE,CLASSIFICATION_TYPE,NORAD_CAT_ID,ELEMENT_SET_NO,REV_AT_EPOCH,BSTAR,MEAN_MOTION_DOT,MEAN_MOTION_DDOT
ONEWEB-0667,2023-029AH,2026-06-25T12:17:51.765216,13.20772284,.00018373,87.9203,272.7721,100.2988,259.8352,0,U,55827,999,16224,.96449149E-4,.52E-6,0
ONEWEB-0669,2023-029AJ,2026-06-25T12:10:34.907808,13.20772902,.00020559,87.9193,272.7836,83.9253,276.2115,0,U,55828,999,16224,-.5615663E-5,.11E-6,0
ONEWEB-0670,2023-029AK,2026-06-25T08:33:54.171072,13.14501698,.00015945,87.8957,288.1122,94.8350,265.2962,0,U,55829,999,16050,-.12152211E-3,-.32E-6,0
ONEWEB-0671,2023-029AL,2026-06-25T09:40:49.489248,13.19724929,.00017116,87.9178,303.3389,100.6986,259.4340,0,U,55830,999,15998,.4633697E-4,.31E-6,0
ONEWEB-0672,2023-029AM,2026-06-25T06:36:01.688256,13.20772913,.00022529,87.9197,272.8232,96.0366,264.1024,0,U,55831,999,16221,.77687395E-4,.45E-6,0
ONEWEB-0673,2023-029AN,2026-06-25T09:07:49.406016,13.19725273,.00017957,87.9183,303.3354,99.2211,260.9124,0,U,55832,999,15998,-.71249093E-3,-.272E-5,0
ONEWEB-0674,2023-029AP,2026-06-25T13:17:03.685632,13.14504538,.00016222,87.8960,288.0496,92.4507,267.6808,0,U,55833,999,16051,-.23662886E-3,-.75E-6,0
ONEWEB-0675,2023-029AQ,2026-06-24T15:17:42.284544,13.19724919,.00021978,87.9178,303.4929,102.1892,257.9487,0,U,55834,999,15990,-.34812114E-4,-.1E-7,0
ONEWEB-0720,2023-029AR,2026-06-25T09:18:05.147712,13.19725042,.00017576,87.9177,303.3435,108.2199,251.9125,0,U,55835,999,15992,.26348202E-3,.118E-5,0
ONEWEB-0537,2023-043A,2026-06-25T13:18:08.342208,13.16594965,.00022956,87.9090,227.1103,95.5113,264.6280,0,U,56046,999,16006,-.15058768E-3,-.45E-6,0
ONEWEB-0538,2023-043B,2026-06-25T13:09:00.955008,13.16595363,.00022244,87.9093,227.1141,102.3161,257.8219,0,U,56047,999,16007,.40325192E-4,.28E-6,0
ONEWEB-0546,2023-043C,2026-06-25T12:50:46.635072,13.16595273,.00027,87.9094,227.1163,89.6202,270.5238,0,U,56048,999,16006,.19245794E-3,.86E-6,0
ONEWEB-0547,2023-043D,2026-06-25T10:09:36.496512,13.21826241,.00020497,87.9252,242.3359,103.4944,256.6418,0,U,56049,999,15931,.13728825E-4,.19E-6,0
ONEWEB-0548,2023-043E,2026-06-25T13:26:06.260352,13.16593226,.00018339,87.9088,227.1077,84.5904,275.5436,0,U,56050,999,16006,-.22199016E-3,-.72E-6,0
ONEWEB-0549,2023-043F,2026-06-25T10:01:08.145696,13.21826504,.00022521,87.9247,242.3431,106.7509,253.3873,0,U,56051,999,15931,.26208283E-3,.121E-5,0
ONEWEB-0550,2023-043G,2026-06-25T13:19:46.668864,13.21825945,.00018957,87.9250,242.3133,95.1638,264.9713,0,U,56052,999,15933,.5512222E-5,.15E-6,0
ONEWEB-0551,2023-043H,2026-06-25T12:31:00.128064,13.15549601,.00021019,87.9001,257.5660,110.0205,250.1152,0,U,56053,999,15749,.2290289E-3,.99E-6,0
ONEWEB-0552,2023-043J,2026-06-25T13:12:28.207008,13.21825653,.00018244,87.9247,242.3196,102.5694,257.5644,0,U,56054,999,15933,.21010798E-3,.1E-5,0
ONEWEB-0553,2023-043K,2026-06-25T12:59:53.671488,13.16595301,.00023597,87.9092,227.1155,89.2924,270.8478,0,U,56055,999,16007,-.1003996E-5,.12E-6,0
ONEWEB-0554,2023-043L,2026-06-25T12:41:39.999552,13.16595797,.00017792,87.9091,227.1268,82.8748,277.2586,0,U,56056,999,16005,.24963055E-3,.108E-5,0
ONEWEB-0555,2023-043M,2026-06-25T09:57:29.055168,13.16592829,.00025854,87.9092,227.1381,89.0452,271.0975,0,U,56057,999,16004,.11700195E-3,.58E-6,0
ONEWEB-0557,2023-043N,2026-06-25T12:07:27.195168,13.16595087,.000233,87.9089,227.1298,63.7391,296.3979,0,U,56058,999,16005,.29699823E-3,.126E-5,0
ONEWEB-0558,2023-043P,2026-06-25T11:13:46.812288,13.21824714,.00022602,87.9252,242.3312,104.7718,255.3667,0,U,56059,999,15933,.25320675E-3,.118E-5,0
ONEWEB-0559,2023-043Q,2026-06-25T10:56:49.295904,13.21826170,.00020328,87.9251,242.3287,105.0608,255.0751,0,U,56060,999,15934,.64013764E-4,.39E-6,0
ONEWEB-0566,2023-043R,2026-06-25T10:47:08.670624,13.21827756,.00020469,87.9250,242.3280,108.0817,252.0540,0,U,56061,999,15932,.15148016E-3,.76E-6,0
ONEWEB-0568,2023-043S,2026-06-25T12:32:32.532000,13.16595512,.00023124,87.9092,227.1161,91.7829,268.3567,0,U,56062,999,16007,.48150643E-3,.197E-5,0
ONEWEB-0574,2023-043T,2026-06-25T10:37:28.156800,13.21825375,.00020254,87.9258,242.3331,92.9014,267.2352,0,U,56063,999,15936,.30504131E-3,.139E-5,0
ONEWEB-0575,2023-043U,2026-06-25T12:23:25.682208,13.16594988,.00021037,87.9092,227.1137,84.4755,275.6616,0,U,56064,999,16006,.21977677E-3,.97E-6,0
ONEWEB-0576,2023-043V,2026-06-25T11:56:03.601824,13.16594184,.00021236,87.9092,227.1256,90.6402,269.4973,0,U,56065,999,16005,-.11124178E-3,-.3E-6,0
ONEWEB-0577,2023-043W,2026-06-25T12:05:11.559264,13.16594024,.00019147,87.9092,227.1218,73.9226,286.2115,0,U,56066,999,16008,.21450944E-3,.95E-6,0
